stk.v.4.3 

BEGIN Ephemeris 
 
NumberOfEphemerisPoints		146 
ScenarioEpoch	    2 Jan 2020 11:55:18.239226937 
InterpolationMethod		Lagrange 
InterpolationOrder		5 
CentralBody				Earth 
CoordinateSystem			TEME 
CoordinateSystemEpoch	  2 Jan 2020 11:55:18.239226937 
DistanceUnit			Kilometers 
 
EphemerisTimePosVel 
 
       0.00000000    7114.96889338    -792.02144915       0.04037546  0.042265738  0.466962193  7.448671966
 END Ephemeris 
